{"type": "FeatureCollection", "features": [ {"type": "Feature", "properties": {"norad_id": 29953, "name": "FENGYUN 1C DEB", "group": "fengyun-1c-debris", "lat": 63.13514310315724, "lon": -175.02280717306758, "alt_km": 949.5174022199317, "timestamp": "2025-12-26T11:25:45.467529+00:00", "meta": {"OBJECT_NAME": "FENGYUN 1C DEB", "OBJECT_ID": "1999-025KB", "EPOCH": "2025-12-25T23:03:20.763072", "MEAN_MOTION": 13.90860859, "ECCENTRICITY": 0.0105695, "INCLINATION": 98.9388, "RA_OF_ASC_NODE": 346.3797, "ARG_OF_PERICENTER": 230.3026, "MEAN_ANOMALY": 186.1301, "EPHEMERIS_TYPE": 0, "CLASSIFICATION_TYPE": "U", "NORAD_CAT_ID": 29953, "ELEMENT_SET_NO": 999, "REV_AT_EPOCH": 96046, "BSTAR": 0.00038375, "MEAN_MOTION_DOT": 4.6e-06, "MEAN_MOTION_DDOT": 0}, "tle": {"line1": "1 29953U 99025KB  25359.96065698  .00000460  00000+0  38375-3 0  9994", "line2": "2 29953  98.9388 346.3797 0105695 230.3026 186.1301 13.90860859960460"}}, "geometry": {"type": "Point", "coordinates": [-175.02280717306758, 63.13514310315724]}}, {"type": "Feature", "properties": {"norad_id": 29954, "name": "FENGYUN 1C DEB", "group": "fengyun-1c-debris", "lat": 52.10222960758568, "lon": 27.631996854386713, "alt_km": 825.9471750339862, "timestamp": "2025-12-26T11:25:45.467539+00:00", "meta": {"OBJECT_NAME": "FENGYUN 1C DEB", "OBJECT_ID": "1999-025KC", "EPOCH": "2025-12-26T01:07:59.198016", "MEAN_MOTION": 14.34290919, "ECCENTRICITY": 0.0074792, "INCLINATION": 100.1496, "RA_OF_ASC_NODE": 40.4337, "ARG_OF_PERICENTER": 231.7622, "MEAN_ANOMALY": 127.6809, "EPHEMERIS_TYPE": 0, "CLASSIFICATION_TYPE": "U", "NORAD_CAT_ID": 29954, "ELEMENT_SET_NO": 999, "REV_AT_EPOCH": 98378, "BSTAR": 0.00078725, "MEAN_MOTION_DOT": 2.224e-05, "MEAN_MOTION_DDOT": 0}, "tle": {"line1": "1 29954U 99025KC  25360.04721294  .00002224  00000+0  78725-3 0  9990", "line2": "2 29954 100.1496  40.4337 0074792 231.7622 127.6809 14.34290919983785"}}, "geometry": {"type": "Point", "coordinates": [27.631996854386713, 52.10222960758568]}}, {"type": "Feature", "properties": {"norad_id": 29955, "name": "FENGYUN 1C DEB", "group": "fengyun-1c-debris", "lat": -15.62924011669966, "lon": 84.85142517113749, "alt_km": 772.7637280673616, "timestamp": "2025-12-26T11:25:45.467549+00:00", "meta": {"OBJECT_NAME": "FENGYUN 1C DEB", "OBJECT_ID": "1999-025KD", "EPOCH": "2025-12-25T04:04:08.116032", "MEAN_MOTION": 14.38345322, "ECCENTRICITY": 0.0008335, "INCLINATION": 99.2725, "RA_OF_ASC_NODE": 80.8221, "ARG_OF_PERICENTER": 214.2561, "MEAN_ANOMALY": 207.6762, "EPHEMERIS_TYPE": 0, "CLASSIFICATION_TYPE": "U", "NORAD_CAT_ID": 29955, "ELEMENT_SET_NO": 999, "REV_AT_EPOCH": 98240, "BSTAR": 0.0015326, "MEAN_MOTION_DOT": 4.622e-05, "MEAN_MOTION_DDOT": 0}, "tle": {"line1": "1 29955U 99025KD  25359.16953838  .00004622  00000+0  15326-2 0  9994", "line2": "2 29955  99.2725  80.8221 0008335 214.2561 207.6762 14.38345322982405"}}, "geometry": {"type": "Point", "coordinates": [84.85142517113749, -15.62924011669966]}}, {"type": "Feature", "properties": {"norad_id": 29956, "name": "FENGYUN 1C DEB", "group": "fengyun-1c-debris", "lat": -76.70174135157566, "lon": 168.03682786408632, "alt_km": 872.2433257387511, "timestamp": "2025-12-26T11:25:45.467558+00:00", "meta": {"OBJECT_NAME": "FENGYUN 1C DEB", "OBJECT_ID": "1999-025KE", "EPOCH": "2025-12-26T00:13:34.313088", "MEAN_MOTION": 14.06174721, "ECCENTRICITY": 0.0053061, "INCLINATION": 98.7904, "RA_OF_ASC_NODE": 28.4775, "ARG_OF_PERICENTER": 340.2536, "MEAN_ANOMALY": 78.5911, "EPHEMERIS_TYPE": 0, "CLASSIFICATION_TYPE": "U", "NORAD_CAT_ID": 29956, "ELEMENT_SET_NO": 999, "REV_AT_EPOCH": 97236, "BSTAR": 7.2039e-05, "MEAN_MOTION_DOT": 7.7e-07, "MEAN_MOTION_DDOT": 0}, "tle": {"line1": "1 29956U 99025KE  25360.00942492  .00000077  00000+0  72039-4 0  9990", "line2": "2 29956  98.7904  28.4775 0053061 340.2536  78.5911 14.06174721972362"}}, "geometry": {"type": "Point", "coordinates": [168.03682786408632, -76.70174135157566]}}, {"type": "Feature", "properties": {"norad_id": 29957, "name": "FENGYUN 1C DEB", "group": "fengyun-1c-debris", "lat": 24.04966849281386, "lon": 124.25991593143036, "alt_km": 730.1593363856937, "timestamp": "2025-12-26T11:25:45.467567+00:00", "meta": {"OBJECT_NAME": "FENGYUN 1C DEB", "OBJECT_ID": "1999-025KF", "EPOCH": "2025-12-25T22:39:31.948128", "MEAN_MOTION": 14.51558206, "ECCENTRICITY": 0.0036343, "INCLINATION": 98.9211, "RA_OF_ASC_NODE": 127.7151, "ARG_OF_PERICENTER": 139.7156, "MEAN_ANOMALY": 346.1674, "EPHEMERIS_TYPE": 0, "CLASSIFICATION_TYPE": "U", "NORAD_CAT_ID": 29957, "ELEMENT_SET_NO": 999, "REV_AT_EPOCH": 97683, "BSTAR": 0.0043739, "MEAN_MOTION_DOT": 0.00017648, "MEAN_MOTION_DDOT": 0}, "tle": {"line1": "1 29957U 99025KF  25359.94411977  .00017648  00000+0  43739-2 0  9996", "line2": "2 29957  98.9211 127.7151 0036343 139.7156 346.1674 14.51558206976830"}}, "geometry": {"type": "Point", "coordinates": [124.25991593143036, 24.04966849281386]}}, {"type": "Feature", "properties": {"norad_id": 29958, "name": "FENGYUN 1C DEB", "group": "fengyun-1c-debris", "lat": -79.24326553904804, "lon": 67.8521910808678, "alt_km": 814.2001699388484, "timestamp": "2025-12-26T11:25:45.467576+00:00", "meta": {"OBJECT_NAME": "FENGYUN 1C DEB", "OBJECT_ID": "1999-025KG", "EPOCH": "2025-12-25T23:56:12.202080", "MEAN_MOTION": 14.14474122, "ECCENTRICITY": 0.005387, "INCLINATION": 98.6678, "RA_OF_ASC_NODE": 13.9745, "ARG_OF_PERICENTER": 294.8119, "MEAN_ANOMALY": 64.7457, "EPHEMERIS_TYPE": 0, "CLASSIFICATION_TYPE": "U", "NORAD_CAT_ID": 29958, "ELEMENT_SET_NO": 999, "REV_AT_EPOCH": 97638, "BSTAR": 0.00032821, "MEAN_MOTION_DOT": 5.95e-06, "MEAN_MOTION_DDOT": 0}, "tle": {"line1": "1 29958U 99025KG  25359.99736345  .00000595  00000+0  32821-3 0  9995", "line2": "2 29958  98.6678  13.9745 0053870 294.8119  64.7457 14.14474122976381"}}, "geometry": {"type": "Point", "coordinates": [67.8521910808678, -79.24326553904804]}}, {"type": "Feature", "properties": {"norad_id": 29959, "name": "FENGYUN 1C DEB", "group": "fengyun-1c-debris", "lat": -15.81368776916836, "lon": -151.75558087236726, "alt_km": 879.0234800755015, "timestamp": "2025-12-26T11:25:45.467585+00:00", "meta": {"OBJECT_NAME": "FENGYUN 1C DEB", "OBJECT_ID": "1999-025KH", "EPOCH": "2025-12-25T14:36:45.872064", "MEAN_MOTION": 14.06021729, "ECCENTRICITY": 0.0041402, "INCLINATION": 98.8069, "RA_OF_ASC_NODE": 29.9177, "ARG_OF_PERICENTER": 291.0481, "MEAN_ANOMALY": 197.4723, "EPHEMERIS_TYPE": 0, "CLASSIFICATION_TYPE": "U", "NORAD_CAT_ID": 29959, "ELEMENT_SET_NO": 999, "REV_AT_EPOCH": 97121, "BSTAR": 0.00023659, "MEAN_MOTION_DOT": 3.48e-06, "MEAN_MOTION_DDOT": 0}, "tle": {"line1": "1 29959U 99025KH  25359.60886426  .00000348  00000+0  23659-3 0  9995", "line2": "2 29959  98.8069  29.9177 0041402 291.0481 197.4723 14.06021729971212"}}, "geometry": {"type": "Point", "coordinates": [-151.75558087236726, -15.81368776916836]}}, {"type": "Feature", "properties": {"norad_id": 29960, "name": "FENGYUN 1C DEB", "group": "fengyun-1c-debris", "lat": 63.4806220782383, "lon": -32.08176353051842, "alt_km": 896.7505958906331, "timestamp": "2025-12-26T11:25:45.467595+00:00", "meta": {"OBJECT_NAME": "FENGYUN 1C DEB", "OBJECT_ID": "1999-025KJ", "EPOCH": "2025-12-25T11:57:46.792800", "MEAN_MOTION": 14.1642486, "ECCENTRICITY": 0.0090805, "INCLINATION": 98.6159, "RA_OF_ASC_NODE": 344.66, "ARG_OF_PERICENTER": 249.2424, "MEAN_ANOMALY": 232.6666, "EPHEMERIS_TYPE": 0, "CLASSIFICATION_TYPE": "U", "NORAD_CAT_ID": 29960, "ELEMENT_SET_NO": 999, "REV_AT_EPOCH": 97635, "BSTAR": 0.00038639, "MEAN_MOTION_DOT": 7.56e-06, "MEAN_MOTION_DDOT": 0}, "tle": {"line1": "1 29960U 99025KJ  25359.49845825  .00000756  00000+0  38639-3 0  9999", "line2": "2 29960  98.6159 344.6600 0090805 249.2424 232.6666 14.16424860976355"}}, "geometry": {"type": "Point", "coordinates": [-32.08176353051842, 63.4806220782383]}}, {"type": "Feature", "properties": {"norad_id": 29961, "name": "FENGYUN 1C DEB", "group": "fengyun-1c-debris", "lat": -1.9651819558153951, "lon": -111.52731581386058, "alt_km": 810.2547728895124, "timestamp": "2025-12-26T11:25:45.467604+00:00", "meta": {"OBJECT_NAME": "FENGYUN 1C DEB", "OBJECT_ID": "1999-025KK", "EPOCH": "2025-12-25T15:14:02.728320", "MEAN_MOTION": 14.26226839, "ECCENTRICITY": 0.0073819, "INCLINATION": 98.9481, "RA_OF_ASC_NODE": 247.3036, "ARG_OF_PERICENTER": 267.1982, "MEAN_ANOMALY": 92.0746, "EPHEMERIS_TYPE": 0, "CLASSIFICATION_TYPE": "U", "NORAD_CAT_ID": 29961, "ELEMENT_SET_NO": 999, "REV_AT_EPOCH": 98493, "BSTAR": 0.00019743, "MEAN_MOTION_DOT": 4.4e-06, "MEAN_MOTION_DDOT": 0}, "tle": {"line1": "1 29961U 99025KK  25359.63475380  .00000440  00000+0  19743-3 0  9996", "line2": "2 29961  98.9481 247.3036 0073819 267.1982  92.0746 14.26226839984930"}}, "geometry": {"type": "Point", "coordinates": [-111.52731581386058, -1.9651819558153951]}}, {"type": "Feature", "properties": {"norad_id": 29962, "name": "FENGYUN 1C DEB", "group": "fengyun-1c-debris", "lat": -50.46814864601459, "lon": 19.018461684129615, "alt_km": 922.7836004879018, "timestamp": "2025-12-26T11:25:45.467614+00:00", "meta": {"OBJECT_NAME": "FENGYUN 1C DEB", "OBJECT_ID": "1999-025KL", "EPOCH": "2025-12-25T23:52:11.928000", "MEAN_MOTION": 14.07165016, "ECCENTRICITY": 0.0110281, "INCLINATION": 98.7681, "RA_OF_ASC_NODE": 7.7728, "ARG_OF_PERICENTER": 183.7636, "MEAN_ANOMALY": 205.4713, "EPHEMERIS_TYPE": 0, "CLASSIFICATION_TYPE": "U", "NORAD_CAT_ID": 29962, "ELEMENT_SET_NO": 999, "REV_AT_EPOCH": 97184, "BSTAR": 3.4562e-05, "MEAN_MOTION_DOT": 1.9e-07, "MEAN_MOTION_DDOT": 0}, "tle": {"line1": "1 29962U 99025KL  25359.99458250  .00000019  00000+0  34562-4 0  9992", "line2": "2 29962  98.7681   7.7728 0110281 183.7636 205.4713 14.07165016971849"}}, "geometry": {"type": "Point", "coordinates": [19.018461684129615, -50.46814864601459]}}]}